GSAT0222 (GALILEO 26)   
1 43565U 18060B   23339.23836681 -.00000079  00000+0  00000+0 0  9990
2 43565  57.2968   6.7226 0005131 249.0214 110.9767  1.70475869 33449
GSAT0219 (GALILEO 23)   
1 43566U 18060C   23337.11422813 -.00000087  00000+0  00000+0 0  9993
2 43566  57.2963   6.7820 0004858 275.9501  84.0462  1.70476133 33388
GSAT0220 (GALILEO 24)   
1 43567U 18060D   23339.09446240 -.00000079  00000+0  00000+0 0  9994
2 43567  57.2965   6.7290 0005144 273.0311  86.9630  1.70476200 33405
BEIDOU-3 M13            
1 43622U 18072A   23339.36441783  .00000000  00000+0  00000+0 0  9999
2 43622  55.8421  93.3882 0005286 281.4071  78.5204  1.86231249 35438
BEIDOU-3 M14            
1 43623U 18072B   23340.30377650 -.00000003  00000+0  00000+0 0  9991
2 43623  55.8447  93.3496 0002606 313.7549  46.2098  1.86231207 35448
GPS BIII-1              
1 43873U 18109A   23338.88662045  .00000074  00000+0  00000+0 0  9991
2 43873  55.2263 128.7469 0027579 190.1648 342.3807  2.00571888 36517
METEOR-M2 2             
1 44387U 19038A   23340.48309564  .00000086  00000+0  57019-4 0  9997
2 44387  98.8011 304.2397 0001849 126.9885 233.1462 14.23832023229826
GPS BIII-2              
1 44506U 19056A   23340.52449338 -.00000079  00000+0  00000+0 0  9995
2 44506  55.8324   7.7500 0038689 189.8308 343.2139  2.00567850 31538
BEIDOU-3 M23            
1 44542U 19061A   23336.92361325  .00000011  00000+0  00000+0 0  9994
2 44542  54.4684 214.0298 0008821   5.0945 354.9999  1.86231592 28522
BEIDOU-3 M24            
1 44543U 19061B   23340.09645046  .00000039  00000+0  00000+0 0  9993
2 44543  54.4662 213.8916 0005662   2.0610 237.2797  1.86232015 28574
BEIDOU-3 M21            
1 44793U 19078A   23339.99065453 -.00000072  00000+0  00000+0 0  9991
2 44793  54.7002 332.0984 0005781   4.0537 355.9663  1.86232223 27449
BEIDOU-3 M22            
1 44794U 19078B   23340.12098413 -.00000071  00000+0  00000+0 0  9990
2 44794  54.6739 332.0742 0004034 349.6702  10.3368  1.86232698 27440
ELEKTRO-L 3             
1 44903U 19095A   23339.85882701 -.00000077  00000+0  00000+0 0  9996
2 44903   0.0629 235.2274 0001007   8.0465 216.2723  1.00273023 14438
GPS BIII-3              
1 45854U 20041A   23339.49240457 -.00000060  00000+0  00000+0 0  9993
2 45854  55.9600  65.0901 0039308 190.3384 259.6135  2.00561369 25498
COSMOS 2547             
1 46805U 20075A   23339.03240180  .00000012  00000+0  00000+0 0  9996
2 46805  64.6067 223.4245 0006024 239.6714 120.3441  2.13102929 24190
GPS BIII-4              
1 46826U 20078A   23340.12657522 -.00000025  00000+0  00000+0 0  9991
2 46826  54.2651 248.2962 0037734 194.1448 329.9291  2.00562701 22966
GSAT0223 (GALILEO 27)   
1 49809U 21116A   23338.65888091 -.00000081  00000+0  00000+0 0  9993
2 49809  57.2875   6.6360 0003799 232.1827 310.8209  1.70476375 12400
GSAT0224 (GALILEO 28)   
1 49810U 21116B   23338.76638471 -.00000081  00000+0  00000+0 0  9992
2 49810  57.2884   6.6314 0002977 237.8328 123.6369  1.70476291 12433
GOES 18                 
1 51850U 22021A   23340.45997764  .00000119  00000+0  00000+0 0  9998
2 51850   0.0427 130.1406 0000333 115.8717 217.5785  1.00273236  6542
